[{"OBJECT_NAME":"IRIDIUM 107","OBJECT_ID":"2017-061F","EPOCH":"2026-03-09T22:26:14.574624","MEAN_MOTION":14.34217551,"ECCENTRICITY":0.00017516,"INCLINATION":86.3913,"RA_OF_ASC_NODE":66.7602,"ARG_OF_PERICENTER":87.4442,"MEAN_ANOMALY":272.6954,"EPHEMERIS_TYPE":0,"CLASSIFICATION_TYPE":"U","NORAD_CAT_ID":42960,"ELEMENT_SET_NO":999,"REV_AT_EPOCH":44059,"BSTAR":-3.536384e-6,"MEAN_MOTION_DOT":1.0e-7,"MEAN_MOTION_DDOT":0},{"OBJECT_NAME":"OBJECT J","OBJECT_ID":"2024-092J","EPOCH":"2026-03-09T22:08:58.299072","MEAN_MOTION":14.31802287,"ECCENTRICITY":0.00130036,"INCLINATION":98.6556,"RA_OF_ASC_NODE":188.1438,"ARG_OF_PERICENTER":138.752,"MEAN_ANOMALY":221.4648,"EPHEMERIS_TYPE":0,"CLASSIFICATION_TYPE":"U","NORAD_CAT_ID":59781,"ELEMENT_SET_NO":999,"REV_AT_EPOCH":9469,"BSTAR":0.00013473254,"MEAN_MOTION_DOT":3.16e-6,"MEAN_MOTION_DDOT":0}]
